{
  "links" : {
    "next" : "https://api.nasa.gov/neo/rest/v1/feed?start_date=2016-06-09&end_date=2016-06-09&detailed=true&api_key=t0TVs3DtDT2H8Oy2Zy8m2eVrNsAVKAexjcZXUckd",
    "prev" : "https://api.nasa.gov/neo/rest/v1/feed?start_date=2016-06-07&end_date=2016-06-07&detailed=true&api_key=t0TVs3DtDT2H8Oy2Zy8m2eVrNsAVKAexjcZXUckd",
    "self" : "https://api.nasa.gov/neo/rest/v1/feed?start_date=2016-06-08&end_date=2016-06-08&detailed=true&api_key=t0TVs3DtDT2H8Oy2Zy8m2eVrNsAVKAexjcZXUckd"
  },
  "element_count" : 11,
  "near_earth_objects" : {
    "2016-06-08" : [ {
      "links" : {
        "self" : "https://api.nasa.gov/neo/rest/v1/neo/3754256?api_key=t0TVs3DtDT2H8Oy2Zy8m2eVrNsAVKAexjcZXUckd"
      },
      "neo_reference_id" : "3754256",
      "name" : "(2016 LN48)",
      "nasa_jpl_url" : "http://ssd.jpl.nasa.gov/sbdb.cgi?sstr=3754256",
      "absolute_magnitude_h" : 21.9,
      "estimated_diameter" : {
        "kilometers" : {
          "estimated_diameter_min" : 0.1108038821,
          "estimated_diameter_max" : 0.2477650126
        },
        "meters" : {
          "estimated_diameter_min" : 110.8038821264,
          "estimated_diameter_max" : 247.7650126055
        },
        "miles" : {
          "estimated_diameter_min" : 0.068850319,
          "estimated_diameter_max" : 0.1539539936
        },
        "feet" : {
          "estimated_diameter_min" : 363.5298086356,
          "estimated_diameter_max" : 812.8773639568
        }
      },
      "is_potentially_hazardous_asteroid" : false,
      "close_approach_data" : [ {
        "close_approach_date" : "2016-06-08",
        "epoch_date_close_approach" : 1465369200000,
        "relative_velocity" : {
          "kilometers_per_second" : "12.514711579",
          "kilometers_per_hour" : "45052.9616845649",
          "miles_per_hour" : "27994.1583311675"
        },
        "miss_distance" : {
          "astronomical" : "0.2320258442",
          "lunar" : "90.2580566406",
          "kilometers" : "34710572",
          "miles" : "21568150"
        },
        "orbiting_body" : "Earth"
      } ],
      "orbital_data" : {
        "orbit_id" : "15",
        "orbit_determination_date" : "2017-04-06 08:25:21",
        "orbit_uncertainty" : "5",
        "minimum_orbit_intersection" : ".0654162",
        "jupiter_tisserand_invariant" : "3.518",
        "epoch_osculation" : "2458000.5",
        "eccentricity" : ".5110919326854253",
        "semi_major_axis" : "2.153672526120634",
        "inclination" : "4.607643909667181",
        "ascending_node_longitude" : "161.4010338982993",
        "orbital_period" : "1154.430862683022",
        "perihelion_distance" : "1.052947872374137",
        "perihelion_argument" : "133.7210872228109",
        "aphelion_distance" : "3.25439717986713",
        "perihelion_time" : "2457571.935299815698",
        "mean_anomaly" : "133.6444624390738",
        "mean_motion" : ".3118419748094062",
        "equinox" : "J2000"
      }
    }, {
      "links" : {
        "self" : "https://api.nasa.gov/neo/rest/v1/neo/3767255?api_key=t0TVs3DtDT2H8Oy2Zy8m2eVrNsAVKAexjcZXUckd"
      },
      "neo_reference_id" : "3767255",
      "name" : "(2017 BO32)",
      "nasa_jpl_url" : "http://ssd.jpl.nasa.gov/sbdb.cgi?sstr=3767255",
      "absolute_magnitude_h" : 24.3,
      "estimated_diameter" : {
        "kilometers" : {
          "estimated_diameter_min" : 0.0366906138,
          "estimated_diameter_max" : 0.0820427065
        },
        "meters" : {
          "estimated_diameter_min" : 36.6906137531,
          "estimated_diameter_max" : 82.0427064882
        },
        "miles" : {
          "estimated_diameter_min" : 0.0227984834,
          "estimated_diameter_max" : 0.0509789586
        },
        "feet" : {
          "estimated_diameter_min" : 120.3760332259,
          "estimated_diameter_max" : 269.1689931548
        }
      },
      "is_potentially_hazardous_asteroid" : false,
      "close_approach_data" : [ {
        "close_approach_date" : "2016-06-08",
        "epoch_date_close_approach" : 1465369200000,
        "relative_velocity" : {
          "kilometers_per_second" : "6.4113729623",
          "kilometers_per_hour" : "23080.9426642721",
          "miles_per_hour" : "14341.600179364"
        },
        "miss_distance" : {
          "astronomical" : "0.400834854",
          "lunar" : "155.9247589111",
          "kilometers" : "59964040",
          "miles" : "37259928"
        },
        "orbiting_body" : "Earth"
      } ],
      "orbital_data" : {
        "orbit_id" : "9",
        "orbit_determination_date" : "2017-04-06 08:20:33",
        "orbit_uncertainty" : "5",
        "minimum_orbit_intersection" : ".00158643",
        "jupiter_tisserand_invariant" : "5.443",
        "epoch_osculation" : "2458000.5",
        "eccentricity" : ".2388414164940042",
        "semi_major_axis" : "1.143448289190361",
        "inclination" : "11.28855418562922",
        "ascending_node_longitude" : "317.3922514660946",
        "orbital_period" : "446.6046292740849",
        "perihelion_distance" : ".8703454801124897",
        "perihelion_argument" : "73.92802233495308",
        "aphelion_distance" : "1.416551098268233",
        "perihelion_time" : "2458144.927751643931",
        "mean_anomaly" : "243.5793738270769",
        "mean_motion" : ".8060821057433891",
        "equinox" : "J2000"
      }
    } ]
  }
}